ONEWEB-0584             
1 54651U 22166K   23105.33334491  .00000013  00000+0  00000+0 0  9991
2 54651  87.9386 114.7911 0000874 144.5374 244.1900 13.27488334 18894
ONEWEB-0585             
1 54652U 22166L   23104.99970805  .00000038  00000+0  48538-4 0  9998
2 54652  87.9648 114.8623 0002284 109.2364 250.9024 13.34988075 18854
ONEWEB-0586             
1 54653U 22166M   23105.00001157  .00000013  00000+0  00000+0 0  9997
2 54653  87.9287 114.8791 0002025 108.4851 329.1709 13.22621281 18854
ONEWEB-0587             
1 54654U 22166N   23105.27876183 -.00001815  00000+0 -36164-2 0  9992
2 54654  88.1268 114.3117 0005277 163.5002 196.6313 13.35253257 18953
ONEWEB-0589             
1 54655U 22166P   23104.92975739 -.00012265  00000+0 -24455-1 0  9991
2 54655  87.9664 114.8496 0003187  82.5020 277.6483 13.34897514 18850
ONEWEB-0590             
1 54656U 22166Q   23104.74058018  .00000025  00000+0  23455-4 0  9995
2 54656  87.9731 114.8952 0000778  44.7947 315.3257 13.35035928 18813
ONEWEB-0591             
1 54657U 22166R   23104.76900790  .00000045  00000+0  62172-4 0  9992
2 54657  87.9663 114.8741 0001755  81.1573 278.9767 13.35446070 18847
ONEWEB-0592             
1 54658U 22166S   23105.25789904 -.00004430  00000+0 -88207-2 0  9999
2 54658  87.9992 114.6886 0001272  93.9548 266.1739 13.35054490 18791
ONEWEB-0593             
1 54659U 22166T   23105.33334491  .00023173  00000+0  50656-1 0  9995
2 54659  87.9453 114.7350 0001772 102.6805 148.9168 13.28454624 18912
ONEWEB-0594             
1 54660U 22166U   23104.92362879  .00000094  00000+0  16024-3 0  9992
2 54660  88.0175 114.7328 0001278 121.8696 238.2571 13.35227774 18861
ONEWEB-0595             
1 54661U 22166V   23104.47382282  .00000047  00000+0  66048-4 0  9993
2 54661  87.9704 114.9727 0002129 106.9080 253.2295 13.35009992 18321
ONEWEB-0596             
1 54662U 22166W   23104.47414387  .00000034  00000+0  41484-4 0  9999
2 54662  87.9586 114.9608 0001303 115.6299 244.4977 13.34530907 18323
ONEWEB-0597             
1 54663U 22166X   23104.49644009  .00000054  00000+0  80088-4 0  9993
2 54663  87.9696 114.9574 0001362  91.0679 269.0618 13.35098200 18334
ONEWEB-0600             
1 54664U 22166Y   23104.66667824 -.00044355  00000+0 -10792+0 0  9997
2 54664  87.9243 114.9280 0001780  92.5158 230.2682 13.21847310 18799
ONEWEB-0601             
1 54665U 22166Z   23104.91758985  .00000102  00000+0  17512-3 0  9996
2 54665  88.1152 114.2188 0001465  84.2173 275.9136 13.35345402 18933
ONEWEB-0602             
1 54666U 22166AA  23103.82285971 -.00006057  00000+0 -12042-1 0  9994
2 54666  87.9862 114.9805 0001070  21.4311 338.6876 13.35118225 18255
ONEWEB-0603             
1 54667U 22166AB  23104.50833671  .00000072  00000+0  11585-3 0  9999
2 54667  87.9734 114.9554 0001388  94.6802 265.4498 13.35035918 18269
ONEWEB-0604             
1 54668U 22166AC  23105.26694933  .00000023  00000+0  18655-4 0  9992
2 54668  87.9975 114.6874 0001347 109.1313 250.9975 13.35108441 18804
ONEWEB-0605             
1 54669U 22166AD  23104.50469051  .00000068  00000+0  10813-3 0  9996
2 54669  87.9696 114.9944 0001073  74.5804 285.5456 13.35198020 18307
ONEWEB-0606             
1 54670U 22166AE  23105.08882207 -.00002891  00000+0 -57648-2 0  9998
2 54670  88.1260 114.3347 0003007 159.0031 201.1234 13.35043925 18817
ONEWEB-0607             
1 54671U 22166AF  23105.26357905  .00000073  00000+0  11799-3 0  9997
2 54671  88.0132 114.6773 0001228  80.0482 280.0799 13.35205708 18896
ONEWEB-0608             
1 54672U 22166AG  23104.76322847  .00000032  00000+0  35992-4 0  9996
2 54672  87.9723 114.9341 0001111 345.0258  15.0851 13.35450950 18831
ONEWEB-0610             
1 54673U 22166AH  23104.46720824  .00000031  00000+0  33983-4 0  9998
2 54673  87.9671 115.0052 0000213 324.9219  35.1909 13.35343275 18232
ONEWEB-0611             
1 54674U 22166AJ  23104.93029942  .00000090  00000+0  14993-3 0  9998
2 54674  87.9609 114.8626 0001453  82.7726 277.3581 13.35559806 18759
ONEWEB-0612             
1 54675U 22166AK  23104.97366908  .00000067  00000+0  10625-3 0  9991
2 54675  87.9687 114.8015 0000560 234.4292 125.6797 13.35360290 18740
ONEWEB-0615             
1 54676U 22166AL  23104.50602332  .00000049  00000+0  69554-4 0  9991
2 54676  87.9698 114.9567 0001790  80.7606 279.3738 13.35228562 18234
ONEWEB-0655             
1 54677U 22166AM  23105.01421627  .00000046  00000+0  64871-4 0  9999
2 54677  87.9666 114.8343 0001851  65.7255 294.4079 13.35272727 18768
ONEWEB-0659             
1 54678U 22166AN  23105.00001157  .00021678  00000+0  52335-1 0  9994
2 54678  87.9210 114.8743 0002364 120.7283 107.3440 13.21822364 18858
ONEWEB-0685             
1 54679U 22166AP  23104.50447791  .00000046  00000+0  64144-4 0  9997
2 54679  87.9678 114.9423 0001597 101.4150 258.7171 13.35216681 18204
ONEWEB-0712             
1 54680U 22166AQ  23105.33334491 -.00785774  00000+0 -37391+0 0  9992
2 54680  87.0347 104.3807 0012844 156.4182 113.9076 14.22441551 19537
ONEWEB-0714             
1 54681U 22166AR  23104.45775340  .00000068  00000+0  10855-3 0  9991
2 54681  87.9697 114.9820 0001459  97.1261 263.0047 13.35041298 18324
ONEWEB-0532             
1 55140U 23004A   23105.00001157 -.00744336  00000+0 -15793+0 0  9991
2 55140  86.6480 245.4344 0002677 136.6158   9.2429 14.61929486 14132
ONEWEB-0533             
1 55141U 23004B   23104.42324110  .00001842  00000+0  33389-3 0  9995
2 55141  86.6242 245.6651 0000840 168.9660 191.1572 14.65795171 14055
ONEWEB-0541             
1 55142U 23004C   23105.08334491  .00000015  00000+0  00000+0 0  9993
2 55142  87.6650 251.0108 0009459 251.1532 288.6157 13.62119045 13849
ONEWEB-0543             
1 55143U 23004D   23104.38394372  .00001580  00000+0  28574-3 0  9998
2 55143  86.6246 245.7417 0001215 213.0159 147.0979 14.65812113 14040
ONEWEB-0544             
1 55144U 23004E   23104.93433089 -.00006349  00000+0 -11729-2 0  9992
2 55144  86.6273 245.4201 0000842  63.8682 296.2618 14.65732322 14136
ONEWEB-0560             
1 55145U 23004F   23104.65789298  .00001639  00000+0  29642-3 0  9997
2 55145  86.6286 245.5462 0002126 133.1711 226.9681 14.65815187 14098
ONEWEB-0565             
1 55146U 23004G   23104.58335648 -.00037478  00000+0 -69272-2 0  9990
2 55146  86.6260 245.5109 0001316 129.8527   1.6422 14.65781594  1301
ONEWEB-0567             
1 55147U 23004H   23104.91211248  .00003061  00000+0  55724-3 0  9994
2 55147  86.6264 245.3890 0001689 258.2957 101.8067 14.65810637 14132
ONEWEB-0569             
1 55148U 23004J   23104.58335648 -.00040092  00000+0 -74157-2 0  9996
2 55148  86.6242 245.5812 0000693 325.8417 218.1171 14.65765731  1308
ONEWEB-0570             
1 55149U 23004K   23104.58335648 -.00042174  00000+0 -77622-2 0  9990
2 55149  86.6237 245.5678 0000952 104.0573 130.4232 14.65999984  1304
ONEWEB-0571             
1 55150U 23004L   23104.58335648 -.00038454  00000+0 -71007-2 0  9999
2 55150  86.6280 245.5692 0000980 189.8263 177.2734 14.65831023  1303
ONEWEB-0572             
1 55151U 23004M   23104.89906755  .00001919  00000+0  34796-3 0  9996
2 55151  86.6253 245.4806 0001549 136.1371 223.9966 14.65794370 14120
ONEWEB-0573             
1 55152U 23004N   23104.58335648 -.00039809  00000+0 -73447-2 0  9996
2 55152  86.6250 245.5979 0000781 124.7796  56.2689 14.65877640  1308
ONEWEB-0588             
1 55153U 23004P   23104.45811195  .00001019  00000+0  18285-3 0  9999
2 55153  86.6251 245.7215 0002003 256.2809 103.8181 14.65801906 14054
ONEWEB-0598             
1 55154U 23004Q   23104.75001157  .00000015  00000+0  00000+0 0  9999
2 55154  87.6383 251.8196 0007318 296.8878 310.4347 13.57277866 13745
ONEWEB-0599             
1 55155U 23004R   23104.41627538  .00001763  00000+0  31911-3 0  9990
2 55155  86.6258 245.6772 0010630 251.0058 109.0004 14.65789443 14057
ONEWEB-0614             
1 55156U 23004S   23104.75001157  .00000015  00000+0  00000+0 0  9991
2 55156  87.6323 251.7806 0009050 278.1545  87.5764 13.54379285 13725
ONEWEB-0616             
1 55157U 23004T   23104.58335648 -.00872922  00000+0 -18836+0 0  9990
2 55157  86.6512 245.5861 0009856 246.9730 255.3931 14.61570917  1306
ONEWEB-0617             
1 55158U 23004U   23104.91667824  .00000015  00000+0  00000+0 0  9990
2 55158  87.6263 251.7484 0007402 256.9993 302.8474 13.56187968 13764
ONEWEB-0618             
1 55159U 23004V   23104.58335648 -.00850505  00000+0 -24631+0 0  9995
2 55159  86.7486 245.6741 0009313 240.8750 153.0801 14.47345050  1302
ONEWEB-0619             
1 55160U 23004W   23104.75001157 -.00699454  00000+0 -14521+0 0  9992
2 55160  86.6437 245.4719 0011317 250.0053 263.5491 14.63121226 14107
ONEWEB-0620             
1 55161U 23004X   23104.75001157  .00000014  00000+0  00000+0 0  9996
2 55161  87.6394 251.7319 0007055 257.9862 178.3399 13.50906920 13707
ONEWEB-0621             
1 55162U 23004Y   23104.50468059  .00000137  00000+0  22098-3 0  9999
2 55162  87.6974 255.1473 0008876 268.6745  91.3383 13.41772377 13414
ONEWEB-0622             
1 55163U 23004Z   23104.75001157  .00000015  00000+0  00000+0 0  9999
2 55163  87.6065 251.8185 0004779 282.6902  29.5882 13.55257538 13732
ONEWEB-0623             
1 55164U 23004AA  23104.58335648 -.00972024  00000+0 -22116+0 0  9998
2 55164  86.6740 245.5169 0012691 258.0368 195.1036 14.58965157  1307
ONEWEB-0624             
1 55165U 23004AB  23104.40223730  .00002131  00000+0  38638-3 0  9999
2 55165  86.6286 245.5747 0006530 269.8609  90.1856 14.65840003 14069
ONEWEB-0625             
1 55166U 23004AC  23104.91667824 -.00776464  00000+0 -17442+0 0  9997
2 55166  86.6630 245.4497 0010220 244.6491 230.3827 14.59397290 14126
ONEWEB-0626             
1 55167U 23004AD  23104.75001157 -.00817166  00000+0 -18882+0 0  9995
2 55167  86.6734 245.4288 0012117 265.3071  69.8364 14.58232463 14109
